{"spkid": "54563276", "covariance": {"labels": ["e", "q", "tp", "node", "peri", "i"], "data": [["1.534105597025457E-15", "-1.953499055518069E-15", "-4.118402623881485E-13", "1.401494489184226E-13", "-1.558081895848764E-13", "-1.048778280057011E-13"], ["-1.953499055518069E-15", "2.682853501491255E-15", "1.985843362155935E-13", "-2.462631316078012E-13", "1.900181311233909E-13", "1.829953233454545E-13"], ["-4.118402623881485E-13", "1.985843362155935E-13", "6.901421695711022E-10", "9.123023719739063E-11", "6.817264584876613E-11", "-6.615646544014366E-11"], ["1.401494489184226E-13", "-2.462631316078012E-13", "9.123023719739063E-11", "1.753490816296979E-10", "-1.177649922847854E-10", "-1.294758386356671E-10"], ["-1.558081895848764E-13", "1.900181311233909E-13", "6.817264584876613E-11", "-1.177649922847854E-10", "1.218421427718325E-10", "8.654651644682726E-11"], ["-1.048778280057011E-13", "1.829953233454545E-13", "-6.615646544014366E-11", "-1.294758386356671E-10", "8.654651644682726E-11", "1.856045725080185E-10"]], "elements": [{"label": "e", "units": null, "value": ".4740452671807528", "title": "eccentricity", "sigma": 3.91676600912725e-08, "name": "e"}, {"value": ".8107631164714045", "title": "perihelion distance", "units": "au", "name": "q", "sigma": 5.17962691850606e-08, "label": "q"}, {"name": "tp", "sigma": 2.62705570852828e-05, "units": "TDB", "value": "2460466.349836671404", "title": "time of perihelion passage", "label": "tp"}, {"sigma": 1.32419440275851e-05, "name": "om", "units": "deg", "title": "longitude of the ascending node", "value": "87.30779147899038", "label": "node"}, {"label": "peri", "units": "deg", "title": "argument of perihelion", "value": "114.4387313143532", "sigma": 1.10382128432021e-05, "name": "w"}, {"label": "i", "units": "deg", "title": "inclination", "value": "26.86002469787305", "sigma": 1.36236769085302e-05, "name": "i"}], "epoch": "2460478.5"}, "elements": [{"value": ".473953386670548", "title": "eccentricity", "units": null, "name": "e", "sigma": "3.9155E-8", "label": "e"}, {"units": "au", "value": "1.541775525409633", "title": "semi-major axis", "sigma": "3.3276E-8", "name": "a", "label": "a"}, {"label": "q", "units": "au", "title": "perihelion distance", "value": ".8110457936559742", "name": "q", "sigma": "5.1776E-8"}, {"label": "i", "units": "deg", "value": "26.8588029590256", "title": "inclination; angle with respect to x-y ecliptic plane", "sigma": "1.3622E-5", "name": "i"}, {"sigma": "1.3241E-5", "name": "om", "value": "87.3063573599062", "title": "longitude of the ascending node", "units": "deg", "label": "node"}, {"value": "114.4103434402416", "title": "argument of perihelion", "units": "deg", "name": "w", "sigma": "1.1038E-5", "label": "peri"}, {"label": "M", "sigma": "4.2771E-6", "name": "ma", "units": "deg", "title": "mean anomaly", "value": "18.10183155245765"}, {"name": "tp", "sigma": "8.5494E-6", "units": "TDB", "title": "time of perihelion passage", "value": "2461165.339894766252", "label": "tp"}, {"label": "period", "name": "per", "sigma": "2.2637E-5", "units": "d", "title": "sidereal orbital period", "value": "699.2462529257608"}, {"label": "n", "units": "deg/d", "title": "mean motion", "value": ".5148400845820783", "name": "n", "sigma": "1.6667E-8"}, {"label": "Q", "title": "aphelion distance", "value": "2.272505257163293", "units": "au", "name": "ad", "sigma": "4.9047E-8"}], "epoch": "2461200.5"}